COSMOS 2251 DEB         
1 35966U 93036AVG 17333.16584151  .00001081  00000-0  50843-3 0  9991
2 35966  74.0407 148.4217 0162665 220.6842 138.2058 14.14453065430861
